QIANFAN-33              
1 61566U 24185Q   26024.46357574  .00000356  00000+0  24755-3 0  9998
2 61566  88.9760  74.0464 0007262 175.2640 184.8607 13.96589515 75122
QIANFAN-34              
1 61567U 24185R   26024.46782939  .00000576  00000+0  36695-3 0  9996
2 61567  88.9735  73.5528 0006067 172.3845 187.7428 14.02347746 75340
QIANFAN-35              
1 61568U 24185S   26024.44163670  .00001187  00000+0  47247-3 0  9994
2 61568  88.9763  71.8678 0008234 133.3295 226.8587 14.28051948 76271
QIANFAN-36              
1 61569U 24185T   26024.47899558  .00000258  00000+0  35373-3 0  9994
2 61569  88.9746  76.5948 0004034 278.6295  81.4402 13.55602843 73714
QIANFAN-37              
1 62238U 24232B   26024.50540676  .00000041  00000+0  44363-4 0  9999
2 62238  88.9995  37.0065 0001785  70.6082 289.5262 13.50983026104945
QIANFAN-38              
1 62239U 24232C   26024.45607889  .00000044  00000+0  48754-4 0  9995
2 62239  89.0002  36.9302 0016445  74.1890 286.1073 13.50981006104998
QIANFAN-39              
1 62240U 24232D   26024.45633343  .00000240  00000+0  95476-4 0  9992
2 62240  88.9999  32.4174 0014177 303.6368  56.3471 14.25415557107472
QIANFAN-40              
1 62241U 24232E   26024.48899855  .00000042  00000+0  46998-4 0  9993
2 62241  89.0030  36.5232 0015534  81.2502 279.0408 13.50981198105364
